GLOBALSTAR M024         
1 25883U 99043A   24131.65469924 -.00000087  00000+0 -77583-3 0  9996
2 25883  52.0005 208.8689 0001910 168.2321   2.1707 11.10159889 70158
GLOBALSTAR M027         
1 25884U 99043B   24131.71520167 -.00000066  00000+0 -93938-4 0  9991
2 25884  52.0213 275.3122 0021670  63.2424 297.0583 11.04367938 96776
GLOBALSTAR M054         
1 25885U 99043C   24131.90109510 -.00000084  00000+0 -31398-3 0  9999
2 25885  52.0110 109.7032 0004497 210.3722 161.8264 11.39203261 73536
GLOBALSTAR M053         
1 25886U 99043D   24131.90900167 -.00000071  00000+0 -65690-4 0  9996
2 25886  52.0015  34.4627 0003737 110.5763 332.4637 11.27654703 74064
GLOBALSTAR M058         
1 25907U 99049A   24131.87226703 -.00000071  00000+0  18051-3 0  9996
2 25907  51.9922 103.4389 0002216 229.1884 130.8759 11.93177071104720
GLOBALSTAR M033         
1 25909U 99049C   24131.92645658 -.00000050  00000+0  39755-3 0  9999
2 25909  51.9935  40.6424 0011748 158.8828 201.2506 12.20273335486631
GLOBALSTAR M055         
1 25910U 99049D   24131.89655922 -.00000100  00000+0 -49726-4 0  9999
2 25910  52.0028  71.0501 0007474  18.5860 341.5263 12.29400563118804
